[Satellite]
VERSION=1.1
NAME=SGSAT
NICKNAME=SGSAT
TLE1=1 42703U 98067LL  17186.17913423  .00013838  00000-0  19703-3 0  9995
TLE2=2 42703  51.6402 308.0168 0003245 339.5367  20.5495 15.56638275  7653
